{"type": "FeatureCollection", "features": [{"type": "Feature", "geometry": {"type": "Point", "coordinates": [-97.4943849242, 35.2358694772]}, "properties": {"loc_id": "52500-1", "on_road": "36th Ave NW", "vpd_max": 13990.0, "volume_year": 2023, "volume_source_text": "NB 6,564vpd - 54mph / SB 7,426vpd - 55mph (3/6/23)"}}, {"type": "Feature", "geometry": {"type": "Point", "coordinates": [-97.511968, 35.264832]}, "properties": {"loc_id": "52500-10", "on_road": "48th Ave NW", "vpd_max": 3390.0, "volume_year": 2023, "volume_source_text": "NB 1,689vpd - 61mph / SB 1,701vpd - 59mph (3/31/23)"}}, {"type": "Feature", "geometry": {"type": "Point", "coordinates": [-97.4479579925537, 35.2201612372943]}, "properties": {"loc_id": "52500-100", "on_road": "W Gray St", "vpd_max": 7647.0, "volume_year": 2023, "volume_source_text": "ONE WAY WB only 7,647vpd - 34mph (4/7/23)"}}, {"type": "Feature", "geometry": {"type": "Point", "coordinates": [-97.4520445413, 35.1894531959]}, "properties": {"loc_id": "52500-109", "on_road": "W Imhoff Rd", "vpd_max": 8016.0, "volume_year": 2025, "volume_source_text": "EB 3,777vpd - 39mph / WB 4,239vpd - 42mph 3/7/25"}}, {"type": "Feature", "geometry": {"type": "Point", "coordinates": [-97.5119984149933, 35.2834799886372]}, "properties": {"loc_id": "52500-11", "on_road": "48th Ave NW", "vpd_max": 3145.0, "volume_year": 2024, "volume_source_text": "NB 1,624vpd - 63mph / SB 1,521vpd - 62mph 12/13/24"}}, {"type": "Feature", "geometry": {"type": "Point", "coordinates": [-97.4472577757, 35.1895884928]}, "properties": {"loc_id": "52500-110", "on_road": "Imhoff Rd W", "vpd_max": 6057.0, "volume_year": 2025, "volume_source_text": "EB 3,073vpd - 36mph / WB 2,984vpd - 35mph 3/7/25"}}, {"type": "Feature", "geometry": {"type": "Point", "coordinates": [-97.4135654632, 35.1895528443]}, "properties": {"loc_id": "52500-111", "on_road": "E Imhoff Rd", "vpd_max": 3612.0, "volume_year": 2024, "volume_source_text": "EB 1,858vpd - 48mph / WB 1,754vpd -45mph 10/18/24"}}, {"type": "Feature", "geometry": {"type": "Point", "coordinates": [-97.4079930782318, 35.1896889465464]}, "properties": {"loc_id": "52500-112", "on_road": "E Imhoff Rd", "vpd_max": 3557.0, "volume_year": 2024, "volume_source_text": "EB 1,825vpd - 48mph / WB 1,732vpd - 43mph 10/18/24"}}, {"type": "Feature", "geometry": {"type": "Point", "coordinates": [-97.4621415138245, 35.1893995978575]}, "properties": {"loc_id": "52500-113", "on_road": "Imhoff Rd", "vpd_max": 5930.0, "volume_year": 2025, "volume_source_text": "EB 2,502vpd - 45mph / WB 3,428vpd - 40mph 3/7/25"}}, {"type": "Feature", "geometry": {"type": "Point", "coordinates": [-97.4794337445, 35.2907906413]}, "properties": {"loc_id": "52500-114", "on_road": "W Indian Hills Rd.", "vpd_max": 6782.0, "volume_year": 2024, "volume_source_text": "EB 3,292vpd - 55mph / WB 3,490vpd - 53mph 12/13/24"}}, {"type": "Feature", "geometry": {"type": "Point", "coordinates": [-97.4616587162018, 35.2908626406435]}, "properties": {"loc_id": "52500-115", "on_road": "W Indian Hills Rd", "vpd_max": 5134.0, "volume_year": 2024, "volume_source_text": "EB 2,617vpd - 47mph / WB 2,517vpd - 45mph 12/13/24"}}, {"type": "Feature", "geometry": {"type": "Point", "coordinates": [-97.4912425726, 35.2906865944]}, "properties": {"loc_id": "52500-116", "on_road": "W Indian Hills Rd", "vpd_max": 8818.0, "volume_year": 2024, "volume_source_text": "EB 4,731vpd - 49mph / WB 4,087vpd - 48mph 12/13/24"}}, {"type": "Feature", "geometry": {"type": "Point", "coordinates": [-97.508043, 35.290773]}, "properties": {"loc_id": "52500-117", "on_road": "W Indian Hills Rd", "vpd_max": 5823.0, "volume_year": 2024, "volume_source_text": "EB 3,113vpd - 62mph / WB 2,710vpd - 59mph 12/13/24"}}, {"type": "Feature", "geometry": {"type": "Point", "coordinates": [-97.499234, 35.290782]}, "properties": {"loc_id": "52500-118", "on_road": "W Indian Hills Rd", "vpd_max": 5823.0, "volume_year": 2024, "volume_source_text": "EB 3,113vpd - 62mph / WB 2,710vpd - 59mph 12/13/24"}}, {"type": "Feature", "geometry": {"type": "Point", "coordinates": [-97.5257066742, 35.2907386179]}, "properties": {"loc_id": "52500-119", "on_road": "W Indian Hills Rd", "vpd_max": 3014.0, "volume_year": 2024, "volume_source_text": "EB 1,564vpd - 65mph / WB 1,450vpd - 53mph 12/13/24"}}, {"type": "Feature", "geometry": {"type": "Point", "coordinates": [-97.511955, 35.230039]}, "properties": {"loc_id": "52500-12", "on_road": "48th Ave NW", "vpd_max": 6060.0, "volume_year": 2024, "volume_source_text": "NB 2,972vpd - 50mph / SB 3,088vpd - 49 mph 9/13/24"}}, {"type": "Feature", "geometry": {"type": "Point", "coordinates": [-97.448952, 35.290845]}, "properties": {"loc_id": "52500-120", "on_road": "W Indian Hills Rd", "vpd_max": 4058.0, "volume_year": 2024, "volume_source_text": "EB 1,960vpd - 59mph / WB 2,098vpd - 59mph 12/13/24"}}, {"type": "Feature", "geometry": {"type": "Point", "coordinates": [-97.4411942054, 35.2125770475]}, "properties": {"loc_id": "52500-123", "on_road": "Jenkins Ave", "vpd_max": 5565.0, "volume_year": 2025, "volume_source_text": "NB 2,596vpd - 34mph / SB 2,969vpd - 34mph 3/7/25"}}, {"type": "Feature", "geometry": {"type": "Point", "coordinates": [-97.4413646429, 35.1848976881]}, "properties": {"loc_id": "52500-124", "on_road": "Jenkins Ave", "vpd_max": 7402.0, "volume_year": 2025, "volume_source_text": "NB 3,402vpd - 45mph / SB 4,000vpd - 42mph 3/7/25"}}, {"type": "Feature", "geometry": {"type": "Point", "coordinates": [-97.441317, 35.199342]}, "properties": {"loc_id": "52500-125", "on_road": "Jenkins Ave", "vpd_max": 11644.0, "volume_year": 2025, "volume_source_text": "NB 5,396vpd - 35mph / SB 6,248vpd - 34mph 3/7/25"}}, {"type": "Feature", "geometry": {"type": "Point", "coordinates": [-97.41653, 35.203846]}, "properties": {"loc_id": "52500-127", "on_road": "E Lindsey St", "vpd_max": 11301.0, "volume_year": 2023, "volume_source_text": "EB 5,689vpd - 43mph / WB 5,612vpd - 44mph (3/24/23)"}}, {"type": "Feature", "geometry": {"type": "Point", "coordinates": [-97.4098089241, 35.2037415787]}, "properties": {"loc_id": "52500-128", "on_road": "E Lindsey St", "vpd_max": 7381.0, "volume_year": 2023, "volume_source_text": "EB 3,702vpd - 53mph / WB 3,679vpd - 52mph (3/24/23)"}}, {"type": "Feature", "geometry": {"type": "Point", "coordinates": [-97.4010617522, 35.2037415787]}, "properties": {"loc_id": "52500-129", "on_road": "E Lindsey St", "vpd_max": 4930.0, "volume_year": 2023, "volume_source_text": "EB 2,448vpd -46mph / WB 2,482vpd - 46mph (3/24/23)"}}, {"type": "Feature", "geometry": {"type": "Point", "coordinates": [-97.5120673617, 35.2255662975]}, "properties": {"loc_id": "52500-13", "on_road": "48th Ave NW", "vpd_max": 5739.0, "volume_year": 2023, "volume_source_text": "NB 2,795vpd - 56mph / SB 2,944vpd - 53mph (3/31/23)"}}, {"type": "Feature", "geometry": {"type": "Point", "coordinates": [-97.4655700804, 35.2038370787]}, "properties": {"loc_id": "52500-131", "on_road": "W Lindsey St", "vpd_max": 22970.0, "volume_year": 2025, "volume_source_text": "EB 11,448vpd - 39mph / WB 11,522vpd - 38mph 3/28/25"}}, {"type": "Feature", "geometry": {"type": "Point", "coordinates": [-97.4611222601, 35.2038110709]}, "properties": {"loc_id": "52500-132", "on_road": "W Lindsey St", "vpd_max": 22435.0, "volume_year": 2025, "volume_source_text": "EB 11,704vpd - 40mph / WB 10,731vpd - 38mph 3/28/25"}}, {"type": "Feature", "geometry": {"type": "Point", "coordinates": [-97.4781086351, 35.2039257662]}, "properties": {"loc_id": "52500-133", "on_road": "W Lindsey St", "vpd_max": 25354.0, "volume_year": 2025, "volume_source_text": "EB 12,337vpd - 37mph / WB 13,017vpd - 38mph 3/28/25"}}, {"type": "Feature", "geometry": {"type": "Point", "coordinates": [-97.382228, 35.203787]}, "properties": {"loc_id": "52500-134", "on_road": "E Lindsey St", "vpd_max": 3283.0, "volume_year": 2023, "volume_source_text": "EB 1,719vpd - 63mph / WB 1,564vpd - 65mph (3/24/23)"}}, {"type": "Feature", "geometry": {"type": "Point", "coordinates": [-97.374624, 35.203772]}, "properties": {"loc_id": "52500-135", "on_road": "(E Lindsey St)12th Ave NW", "vpd_max": 2601.0, "volume_year": 2023, "volume_source_text": "NB 1,341vpd - 65mph / SB 1,260vpd - 59mph (5/5/23)"}}, {"type": "Feature", "geometry": {"type": "Point", "coordinates": [-97.456407, 35.203919]}, "properties": {"loc_id": "52500-136", "on_road": "W Lindsey St", "vpd_max": 18075.0, "volume_year": 2023, "volume_source_text": "EB 9,131vpd - 43mph / WB 8,944vpd - 42mph (4/21/23)"}}, {"type": "Feature", "geometry": {"type": "Point", "coordinates": [-97.51194, 35.243117]}, "properties": {"loc_id": "52500-14", "on_road": "48th Ave NW", "vpd_max": 4139.0, "volume_year": 2024, "volume_source_text": "NB 2,107vpd - 55mph / SB 2,032vpd 54mph 12/13/24"}}, {"type": "Feature", "geometry": {"type": "Point", "coordinates": [-97.47124, 35.218452]}, "properties": {"loc_id": "52500-144", "on_road": "W Main St", "vpd_max": 25937.0, "volume_year": 2024, "volume_source_text": "EB 13,679vpd - 40mph / WB 12,258vpd - 40mph 11/22/24"}}, {"type": "Feature", "geometry": {"type": "Point", "coordinates": [-97.4639976024628, 35.2184170160044]}, "properties": {"loc_id": "52500-145", "on_road": "W Main St", "vpd_max": 25355.0, "volume_year": 2022, "volume_source_text": "EB 13,096vpd - 45mph / WB 12,259vpd - 47mph (11/18/22)"}}, {"type": "Feature", "geometry": {"type": "Point", "coordinates": [-97.5059580802918, 35.2183994859519]}, "properties": {"loc_id": "52500-146", "on_road": "W Main St", "vpd_max": 7027.0, "volume_year": 2024, "volume_source_text": "EB 3,542vpd - 44mph / WB 3,485vpd - 45mph 12/6/24"}}, {"type": "Feature", "geometry": {"type": "Point", "coordinates": [-97.4982789554, 35.2183707037]}, "properties": {"loc_id": "52500-148", "on_road": "W Main St", "vpd_max": 12294.0, "volume_year": 2024, "volume_source_text": "EB 6,088vpd - 47mph / WB 6,206vpd - 44mph 12/6/24"}}, {"type": "Feature", "geometry": {"type": "Point", "coordinates": [-97.4565947055817, 35.2184082509786]}, "properties": {"loc_id": "52500-149", "on_road": "W Main St", "vpd_max": 22859.0, "volume_year": 2024, "volume_source_text": "EB 12,707vpd - 36mph / WB 10,152vpd - 35mph 11/1/24"}}, {"type": "Feature", "geometry": {"type": "Point", "coordinates": [-97.5118723671255, 35.2538279098888]}, "properties": {"loc_id": "52500-15", "on_road": "48th Ave NW", "vpd_max": 4409.0, "volume_year": 2026, "volume_source_text": "NB 2,268vph - 55mph / SB 2,141vpd - 54mph 5/1/26"}}, {"type": "Feature", "geometry": {"type": "Point", "coordinates": [-97.453738, 35.218395]}, "properties": {"loc_id": "52500-150", "on_road": "W Main St", "vpd_max": 22720.0, "volume_year": 2024, "volume_source_text": "EB 12,094vpd - 34mph / WB 10,626vpd - 34mph 11/1/24"}}, {"type": "Feature", "geometry": {"type": "Point", "coordinates": [-97.427659034729, 35.2255864900084]}, "properties": {"loc_id": "52500-151", "on_road": "E Main St", "vpd_max": 6907.0, "volume_year": 2018, "volume_source_text": "EB 3,786vpd - 45mph / WB 3,121 - 50mph (9-21-18)"}}, {"type": "Feature", "geometry": {"type": "Point", "coordinates": [-97.491167, 35.218385]}, "properties": {"loc_id": "52500-152", "on_road": "W Main St", "vpd_max": 19420.0, "volume_year": 2024, "volume_source_text": "EB 9,378vpd - 38mph / WB 10,042vpd - 45mph 12/6/24"}}, {"type": "Feature", "geometry": {"type": "Point", "coordinates": [-97.4876439571381, 35.2183907209243]}, "properties": {"loc_id": "52500-153", "on_road": "W Main St", "vpd_max": 28681.0, "volume_year": 2024, "volume_source_text": "EB 14,702vpd - 48mph / WB 13,979vpd - 44mph 12/6/24"}}, {"type": "Feature", "geometry": {"type": "Point", "coordinates": [-97.449709, 35.21838]}, "properties": {"loc_id": "52500-154", "on_road": "W Main St", "vpd_max": 15283.0, "volume_year": 2022, "volume_source_text": "EB 10,507 - 35mph / WB 4,776vpd - 37mph (11/18/22)"}}, {"type": "Feature", "geometry": {"type": "Point", "coordinates": [-97.4422448304, 35.2213813522]}, "properties": {"loc_id": "52500-155", "on_road": "E Main St", "vpd_max": 9469.0, "volume_year": 2020, "volume_source_text": "EB 9,469vpd - 29mph (12/11/20)"}}, {"type": "Feature", "geometry": {"type": "Point", "coordinates": [-97.483006, 35.218413]}, "properties": {"loc_id": "52500-157", "on_road": "W Main St", "vpd_max": 34556.0, "volume_year": 2022, "volume_source_text": "EB 17,476vpd - 47mph / WB 17,080 - 48mph (12/2/22)"}}, {"type": "Feature", "geometry": {"type": "Point", "coordinates": [-97.4785459041595, 35.2184082509786]}, "properties": {"loc_id": "52500-158", "on_road": "W Main St", "vpd_max": 31886.0, "volume_year": 2022, "volume_source_text": "EB 16,305vpd - 40mph / WB 15,581vpd 40 mph (12/2/22)"}}, {"type": "Feature", "geometry": {"type": "Point", "coordinates": [-97.511872, 35.253992]}, "properties": {"loc_id": "52500-16", "on_road": "48th Ave NW", "vpd_max": 4076.0, "volume_year": 2024, "volume_source_text": "NB 2,106vpd - 54mph / SB 1,970vpd - 55mph 12/13/24"}}, {"type": "Feature", "geometry": {"type": "Point", "coordinates": [-97.4458658695221, 35.2198632322917]}, "properties": {"loc_id": "52500-160", "on_road": "W Main St", "vpd_max": 10084.0, "volume_year": 2024, "volume_source_text": "ONE WAY street EB 10,084vpd - 32mph 11/1/24"}}, {"type": "Feature", "geometry": {"type": "Point", "coordinates": [-97.4401795864105, 35.2243156636626]}, "properties": {"loc_id": "52500-161", "on_road": "N Porter Ave", "vpd_max": 14056.0, "volume_year": 2023, "volume_source_text": "NB 6,851vpd - 36mph / SB 7,205vpd - 36mph (4/7/23)"}}, {"type": "Feature", "geometry": {"type": "Point", "coordinates": [-97.441295, 35.268709]}, "properties": {"loc_id": "52500-162", "on_road": "N Porter Ave", "vpd_max": 6398.0, "volume_year": 2023, "volume_source_text": "NB 2,922vpd - 59mph / SB 3,476vpd - 57mph (4/14/23)"}}, {"type": "Feature", "geometry": {"type": "Point", "coordinates": [-97.4413517117501, 35.2767973637861]}, "properties": {"loc_id": "52500-163", "on_road": "N Porter Ave", "vpd_max": 7124.0, "volume_year": 2023, "volume_source_text": "NB 3,357vpd - 30mph / SB 3,767vpd - 32mph (4/14/23)"}}, {"type": "Feature", "geometry": {"type": "Point", "coordinates": [-97.438437, 35.221553]}, "properties": {"loc_id": "52500-164", "on_road": "S Porter Ave", "vpd_max": 16494.0, "volume_year": 2025, "volume_source_text": "NB 7,354vpd - 34mph / SB 9,140vpd - 37mph 3/14/25"}}, {"type": "Feature", "geometry": {"type": "Point", "coordinates": [-97.4410714788, 35.2302674303]}, "properties": {"loc_id": "52500-165", "on_road": "N Porter Ave", "vpd_max": 15157.0, "volume_year": 2023, "volume_source_text": "NB 7,725vpd - 38mph / SB 7,432vpd - 37mph (4/14/23)"}}, {"type": "Feature", "geometry": {"type": "Point", "coordinates": [-97.4411200804, 35.2431651647]}, "properties": {"loc_id": "52500-167", "on_road": "N Porter Ave", "vpd_max": 12671.0, "volume_year": 2023, "volume_source_text": "NB 6,208vpd - 51mph / SB 6,463vpd -52mph (4/14/23)"}}, {"type": "Feature", "geometry": {"type": "Point", "coordinates": [-97.4411022663116, 35.2354106205823]}, "properties": {"loc_id": "52500-169", "on_road": "N Porter Ave", "vpd_max": 13859.0, "volume_year": 2023, "volume_source_text": "NB 6,863vpd - 46mph / SB 6,996vpd - 48mph (4/14/23)"}}, {"type": "Feature", "geometry": {"type": "Point", "coordinates": [-97.4411388069, 35.2545015319]}, "properties": {"loc_id": "52500-170", "on_road": "N Porter Ave", "vpd_max": 10905.0, "volume_year": 2023, "volume_source_text": "NB 5,113vpd - 56mph / SB 5,792vpd - 55mph (4/14/23)"}}, {"type": "Feature", "geometry": {"type": "Point", "coordinates": [-97.4203218616, 35.2329015006]}, "properties": {"loc_id": "52500-173", "on_road": "E Robinson St", "vpd_max": 9998.0, "volume_year": 2021, "volume_source_text": "EB 5,131vpd - 48mph / WB 4,867vpd - 51 mph (1/29/21)"}}, {"type": "Feature", "geometry": {"type": "Point", "coordinates": [-97.4155033772, 35.2328660006]}, "properties": {"loc_id": "52500-174", "on_road": "E Robinson St", "vpd_max": 11214.0, "volume_year": 2023, "volume_source_text": "EB 5,756vpd - 54mph / WB 5,458vpd - 55mph (3/10/23)"}}, {"type": "Feature", "geometry": {"type": "Point", "coordinates": [-97.397007, 35.232904]}, "properties": {"loc_id": "52500-175", "on_road": "E Robinson St E", "vpd_max": 4753.0, "volume_year": 2023, "volume_source_text": "EB 2,371vpd - 55mph / WB 2,382vpd -57mph (3/10/23)"}}, {"type": "Feature", "geometry": {"type": "Point", "coordinates": [-97.4710062992, 35.2329689928]}, "properties": {"loc_id": "52500-176", "on_road": "W Robinson St", "vpd_max": 26674.0, "volume_year": 2021, "volume_source_text": "EB 12,639vpd - 52mph / WB 14,035vpd - 53mph (5/14/21)"}}, {"type": "Feature", "geometry": {"type": "Point", "coordinates": [-97.4624227913, 35.2328909616]}, "properties": {"loc_id": "52500-177", "on_road": "W Robinson St", "vpd_max": 26724.0, "volume_year": 2021, "volume_source_text": "EB 13,085vpd - 50mph / WB 13,639vpd - 50mph (5/14/21)"}}, {"type": "Feature", "geometry": {"type": "Point", "coordinates": [-97.490878, 35.232913]}, "properties": {"loc_id": "52500-178", "on_road": "W Robinson St", "vpd_max": 21249.0, "volume_year": 2019, "volume_source_text": "EB 10,912vpd - 42mph / WB 10,337vpd - 49mph (3-8-19)"}}, {"type": "Feature", "geometry": {"type": "Point", "coordinates": [-97.3623032522, 35.2326670006]}, "properties": {"loc_id": "52500-179", "on_road": "E Robinson St E", "vpd_max": 2581.0, "volume_year": 2023, "volume_source_text": "EB 1,398vpd - 59mph / WB 1,183vpd - 61mph (3/10/23)"}}, {"type": "Feature", "geometry": {"type": "Point", "coordinates": [-97.3530399799347, 35.2109488709317]}, "properties": {"loc_id": "52500-18", "on_road": "Se 60th Ave Se", "vpd_max": 1793.0, "volume_year": 2018, "volume_source_text": "NB 842vpd - 56mph / SB 951vpd - 50 mph (10-26-18)"}}, {"type": "Feature", "geometry": {"type": "Point", "coordinates": [-97.4989417211, 35.2329169694]}, "properties": {"loc_id": "52500-181", "on_road": "W Robinson St", "vpd_max": 10553.0, "volume_year": 2019, "volume_source_text": "EB 5,383vpd - 48mph / WB 5,170vpd - 48mph (3-8-19)"}}, {"type": "Feature", "geometry": {"type": "Point", "coordinates": [-97.3482091584, 35.232857735]}, "properties": {"loc_id": "52500-182", "on_road": "E Robinson St E", "vpd_max": 1618.0, "volume_year": 2023, "volume_source_text": "EB 895vpd - 60mph / WB 723vpd - 59mph (3/10/23)"}}, {"type": "Feature", "geometry": {"type": "Point", "coordinates": [-97.5255751285685, 35.2328646712098]}, "properties": {"loc_id": "52500-183", "on_road": "W Robinson St", "vpd_max": 3525.0, "volume_year": 2018, "volume_source_text": "EB 1,950vpd - 54mph / WB 1,575vpd - 62mph (9-28-18)"}}, {"type": "Feature", "geometry": {"type": "Point", "coordinates": [-97.4563694000244, 35.2329043095836]}, "properties": {"loc_id": "52500-185", "on_road": "W Robinson St", "vpd_max": 29463.0, "volume_year": 2021, "volume_source_text": "EB 14,207vpd - 47mph / WB 15,256vpd 45mph (5/7/21)"}}, {"type": "Feature", "geometry": {"type": "Point", "coordinates": [-97.4826850726, 35.232942985]}, "properties": {"loc_id": "52500-187", "on_road": "W Robinson St", "vpd_max": 29585.0, "volume_year": 2019, "volume_source_text": "EB 14,007vpd - 41mph / WB 15,578vpd - 38mph (3-8-19)"}}, {"type": "Feature", "geometry": {"type": "Point", "coordinates": [-97.435549, 35.23288]}, "properties": {"loc_id": "52500-189", "on_road": "E Robinson St", "vpd_max": 18886.0, "volume_year": 2021, "volume_source_text": "EB 9,518vpd - 47mph / WB 9,368vpd - 46mph (1/29/21)"}}, {"type": "Feature", "geometry": {"type": "Point", "coordinates": [-97.353087, 35.191794]}, "properties": {"loc_id": "52500-19", "on_road": "60th Ave.SE", "vpd_max": 1296.0, "volume_year": 2024, "volume_source_text": "NB 617vpd - 54mph / SB 679vpd - 59mph 9/27/24"}}, {"type": "Feature", "geometry": {"type": "Point", "coordinates": [-97.4518740177154, 35.2328517288033]}, "properties": {"loc_id": "52500-192", "on_road": "W Robinson St", "vpd_max": 32967.0, "volume_year": 2021, "volume_source_text": "EB 17,123vpd - 44mph / WB 15,844vpd - 42mph (5/7/21)"}}, {"type": "Feature", "geometry": {"type": "Point", "coordinates": [-97.4427587444, 35.2328909616]}, "properties": {"loc_id": "52500-194", "on_road": "E Robinson St E", "vpd_max": 29431.0, "volume_year": 2021, "volume_source_text": "EB 15,105vpd - 40mph / WB 14,326vpd - 43mph (5/7/21)"}}, {"type": "Feature", "geometry": {"type": "Point", "coordinates": [-97.4192952835, 35.2472720788]}, "properties": {"loc_id": "52500-195", "on_road": "E Rock Creek Rd E", "vpd_max": 3558.0, "volume_year": 2020, "volume_source_text": "EB 1,752vpd - 58mph / WB 1,806vpd - 55mph (10/2/20)"}}, {"type": "Feature", "geometry": {"type": "Point", "coordinates": [-97.4974286556244, 35.2474153021041]}, "properties": {"loc_id": "52500-198", "on_road": "W Rock Creek Rd", "vpd_max": 6194.0, "volume_year": 2021, "volume_source_text": "EB 3,067vpd - 48mph / WB 3,127vpd - 48mph (3/12/21)"}}, {"type": "Feature", "geometry": {"type": "Point", "coordinates": [-97.4943263382, 35.2595563678]}, "properties": {"loc_id": "52500-2", "on_road": "36th Ave NW", "vpd_max": 16927.0, "volume_year": 2024, "volume_source_text": "NB 8,606vpd - 47mph / SB 8,321vpd - 49mph 12/20/24"}}, {"type": "Feature", "geometry": {"type": "Point", "coordinates": [-97.429753, 35.247407]}, "properties": {"loc_id": "52500-200", "on_road": "E Rock Creek Rd", "vpd_max": 7451.0, "volume_year": 2020, "volume_source_text": "EB 3,445vpd - 57mph / WB 4,006vpd - 54mph (10/2/20)"}}, {"type": "Feature", "geometry": {"type": "Point", "coordinates": [-97.4558007717132, 35.2474415877779]}, "properties": {"loc_id": "52500-201", "on_road": "W Rock Creek Rd", "vpd_max": 9504.0, "volume_year": 2020, "volume_source_text": "EB 4,295vpd -47mph / WB 5,209vpd - 51mph (10/2/20)"}}, {"type": "Feature", "geometry": {"type": "Point", "coordinates": [-97.4485591194, 35.2474569147]}, "properties": {"loc_id": "52500-202", "on_road": "W Rock Creek Rd", "vpd_max": 7848.0, "volume_year": 2020, "volume_source_text": "EB 3,460vpd - 53mph / WB 4,388vpd - 52mph (10/2/20)"}}, {"type": "Feature", "geometry": {"type": "Point", "coordinates": [-97.238006, 35.319216]}, "properties": {"loc_id": "52500-204", "on_road": "Stella Rd", "vpd_max": 3322.0, "volume_year": 2020, "volume_source_text": "EB 1,702vpd - 55mph / WB 1,620vpd - 68mph (10/ 16/20)"}}, {"type": "Feature", "geometry": {"type": "Point", "coordinates": [-97.3793578147888, 35.29078382585]}, "properties": {"loc_id": "52500-205", "on_road": "E Indian Hills Rd E", "vpd_max": 1176.0, "volume_year": 2020, "volume_source_text": "EB 596vpd - 62mph / WB 580vpd - 70mph (10/2/20)"}}, {"type": "Feature", "geometry": {"type": "Point", "coordinates": [-97.4143379163, 35.2906636569]}, "properties": {"loc_id": "52500-206", "on_road": "E INDIAN HILLS RD E", "vpd_max": 2046.0, "volume_year": 2020, "volume_source_text": "EB 980vpd - 64mph / WB 1,066vpd - 64mph (10/2/20)"}}, {"type": "Feature", "geometry": {"type": "Point", "coordinates": [-97.353023549, 35.2832950788]}, "properties": {"loc_id": "52500-21", "on_road": "NE 60th Ave NE", "vpd_max": 337.0, "volume_year": 2023, "volume_source_text": "NB 186vpd - 59mph / SB 151vpd - 65mph (5/5/23)"}}, {"type": "Feature", "geometry": {"type": "Point", "coordinates": [-97.2011089083, 35.2322006725]}, "properties": {"loc_id": "52500-218", "on_road": "NE State Hwy 9 Hwy NE", "vpd_max": 7990.0, "volume_year": 2021, "volume_source_text": "EB 3,917vpd - 75mph / WB 4,073vpd -75mph (4/9/21)"}}, {"type": "Feature", "geometry": {"type": "Point", "coordinates": [-97.449423, 35.214863]}, "properties": {"loc_id": "52500-219", "on_road": "W Symmes St", "vpd_max": 2274.0, "volume_year": 2025, "volume_source_text": "EB 1,321vpd - 33mph / WB 953vpd - 30mph 3/14/25"}}, {"type": "Feature", "geometry": {"type": "Point", "coordinates": [-97.5077593304, 35.261892821]}, "properties": {"loc_id": "52500-222", "on_road": "W Tecumseh Rd", "vpd_max": 6466.0, "volume_year": 2026, "volume_source_text": "EB 3,213vpd - 51mph / WB 3,253vpd - 56mph 3/6/26"}}, {"type": "Feature", "geometry": {"type": "Point", "coordinates": [-97.4954974651337, 35.2618536153926]}, "properties": {"loc_id": "52500-223", "on_road": "W Tecumseh Rd", "vpd_max": 9358.0, "volume_year": 2026, "volume_source_text": "EB 4,679vpd - 48mph / WB 4,679vpd 54mph 3/6/26"}}, {"type": "Feature", "geometry": {"type": "Point", "coordinates": [-97.5254465648, 35.2618147897]}, "properties": {"loc_id": "52500-224", "on_road": "W Tecumseh Rd", "vpd_max": 3806.0, "volume_year": 2026, "volume_source_text": "EB 1,814vpd - 65mph / WB 1,992vpd - 59mph 3/6/26"}}, {"type": "Feature", "geometry": {"type": "Point", "coordinates": [-97.4813845414, 35.2619968678]}, "properties": {"loc_id": "52500-226", "on_road": "W Tecumseh Rd", "vpd_max": 19844.0, "volume_year": 2026, "volume_source_text": "EB 9,518vpd - 52mph / WB 10,326vpd - 46mph 3/6/26"}}, {"type": "Feature", "geometry": {"type": "Point", "coordinates": [-97.4719686898, 35.2620228756]}, "properties": {"loc_id": "52500-228", "on_road": "W Tecumseh Rd", "vpd_max": 18741.0, "volume_year": 2025, "volume_source_text": "EB 9,822vpd - 49mph / WB 8,919vpd - 50mph 2/7/25"}}, {"type": "Feature", "geometry": {"type": "Point", "coordinates": [-97.5295829772949, 35.2390034488237]}, "properties": {"loc_id": "52500-23", "on_road": "60th Ave NW", "vpd_max": 3519.0, "volume_year": 2018, "volume_source_text": "NB 1,565vpd - 64mph / SB 1,954vpd - 70mph (9-28-18)"}}, {"type": "Feature", "geometry": {"type": "Point", "coordinates": [-97.4454898616, 35.2619708522]}, "properties": {"loc_id": "52500-231", "on_road": "W Tecumseh Rd", "vpd_max": 14821.0, "volume_year": 2025, "volume_source_text": "EB 7,760vpd - 59mph / WB 7,061vpd - 60mph 12/12/25"}}, {"type": "Feature", "geometry": {"type": "Point", "coordinates": [-97.446745634079, 35.2166464615862]}, "properties": {"loc_id": "52500-233", "on_road": "S University Blvd", "vpd_max": 4067.0, "volume_year": 2026, "volume_source_text": "NB 2,236vpd - 28mph / SB 1,831vpd - 28mph 3/13/26"}}, {"type": "Feature", "geometry": {"type": "Point", "coordinates": [-97.4483185726, 35.219258274]}, "properties": {"loc_id": "52500-234", "on_road": "N University Blvd", "vpd_max": 3840.0, "volume_year": 2025, "volume_source_text": "NB 436vpd - 25mph / SB 3,404vpd - 24mph 3/7/25"}}, {"type": "Feature", "geometry": {"type": "Point", "coordinates": [-97.4456238148, 35.2131746647]}, "properties": {"loc_id": "52500-236", "on_road": "S University Blvd", "vpd_max": 3654.0, "volume_year": 2018, "volume_source_text": "NB 2,008vpd - 32mph / SB 1,646vpd - 30mph (12-7-18)"}}, {"type": "Feature", "geometry": {"type": "Point", "coordinates": [-97.4087408225, 35.1686822506]}, "properties": {"loc_id": "52500-237", "on_road": "Classen Blvd", "vpd_max": 22012.0, "volume_year": 2026, "volume_source_text": "NB 10,925vpd - 68mph / SB 11,087vpd 58mph 1/23/26"}}, {"type": "Feature", "geometry": {"type": "Point", "coordinates": [-97.5296585883, 35.2539852116]}, "properties": {"loc_id": "52500-24", "on_road": "60th Ave NW", "vpd_max": 4089.0, "volume_year": 2026, "volume_source_text": "NB 1,943vpd - 70mph / SB 2,146vpd - 65mph 5/1/26"}}, {"type": "Feature", "geometry": {"type": "Point", "coordinates": [-97.45836, 35.243601]}, "properties": {"loc_id": "52500-240", "on_road": "Flood Ave.", "vpd_max": 21086.0, "volume_year": 2018, "volume_source_text": "NB 9,641vpd - 54mph / SB 11,445vpd - 62mph (11-2-18)"}}, {"type": "Feature", "geometry": {"type": "Point", "coordinates": [-97.4576251164128, 35.2425030247092]}, "properties": {"loc_id": "52500-241", "on_road": "Flood Ave.", "vpd_max": 20765.0, "volume_year": 2022, "volume_source_text": "NB 9,358vpd - 62mph / SB 11,407vpd - 57 mph (10/7/22)"}}, {"type": "Feature", "geometry": {"type": "Point", "coordinates": [-97.4679890648, 35.2546618678]}, "properties": {"loc_id": "52500-243", "on_road": "Flood Ave.", "vpd_max": 24837.0, "volume_year": 2026, "volume_source_text": "NB 12,352vpd - 68mph / SB 12,485vpd - 57mph 3/13/26"}}, {"type": "Feature", "geometry": {"type": "Point", "coordinates": [-97.4450945648, 35.2169459928]}, "properties": {"loc_id": "52500-244", "on_road": "Webster", "vpd_max": 3548.0, "volume_year": 2026, "volume_source_text": "NB 1,725vpd - 33mph / SB 1,823vpd - 29mph 4/10/26"}}, {"type": "Feature", "geometry": {"type": "Point", "coordinates": [-97.4468698382, 35.2198377662]}, "properties": {"loc_id": "52500-245", "on_road": "N Webster Ave", "vpd_max": 3078.0, "volume_year": 2018, "volume_source_text": "NB 1,356vpd - 29mph / SB 1,722vpd - 26mph (12-7-18)"}}, {"type": "Feature", "geometry": {"type": "Point", "coordinates": [-97.4943494796753, 35.2235443938311]}, "properties": {"loc_id": "52500-247", "on_road": "36th Ave.NW", "vpd_max": 16101.0, "volume_year": 2024, "volume_source_text": "NB 7,869vpd - 43mph / SB 8,232vpd - 43mph 12/20/24"}}, {"type": "Feature", "geometry": {"type": "Point", "coordinates": [-97.3530071584, 35.1678446568]}, "properties": {"loc_id": "52500-25", "on_road": "60th Ave.SE", "vpd_max": 979.0, "volume_year": 2025, "volume_source_text": "NB 467vpd - 68mph / SB 512vpd - 59mph 4/18/25"}}, {"type": "Feature", "geometry": {"type": "Point", "coordinates": [-97.5202690648, 35.2763100319]}, "properties": {"loc_id": "52500-250", "on_road": "W Franklin Rd", "vpd_max": 665.0, "volume_year": 2026, "volume_source_text": "EB 332vpd - 69mph / WB 333vpd - 58mph 3/27/26"}}, {"type": "Feature", "geometry": {"type": "Point", "coordinates": [-97.4236464500427, 35.2078983041991]}, "properties": {"loc_id": "52500-254", "on_road": "12th Ave.SE", "vpd_max": 25648.0, "volume_year": 2026, "volume_source_text": "NB 13,303vpd - 51mph / SB 12,345vpd - 49mph 2/13/26"}}, {"type": "Feature", "geometry": {"type": "Point", "coordinates": [-97.4236571788788, 35.2570615720419]}, "properties": {"loc_id": "52500-255", "on_road": "12th Ave NE", "vpd_max": 16016.0, "volume_year": 2026, "volume_source_text": "NB 7,970vpd - 63mph / SB 8,046vpd - 54mph 2/20/26"}}, {"type": "Feature", "geometry": {"type": "Point", "coordinates": [-97.4235662054, 35.2504752663]}, "properties": {"loc_id": "52500-256", "on_road": "12th Ave NE", "vpd_max": 16483.0, "volume_year": 2026, "volume_source_text": "NB 8,172vpd - 52mph / SB 8,311vpd - 58mph 2/20/26"}}, {"type": "Feature", "geometry": {"type": "Point", "coordinates": [-97.4236571788788, 35.2866590779036]}, "properties": {"loc_id": "52500-257", "on_road": "12th Ave NE", "vpd_max": 12954.0, "volume_year": 2026, "volume_source_text": "NB 6,453vpd - 68mph / SB 6,501vpd 62mph 2/20/26"}}, {"type": "Feature", "geometry": {"type": "Point", "coordinates": [-97.4184328929, 35.2183612506]}, "properties": {"loc_id": "52500-26", "on_road": "E Alameda St", "vpd_max": 15625.0, "volume_year": 2018, "volume_source_text": "EB 7,865vpd - 42mph / WB 7,760vpd - 46mph (10-5-18)"}}, {"type": "Feature", "geometry": {"type": "Point", "coordinates": [-97.4235645647, 35.2243130865]}, "properties": {"loc_id": "52500-260", "on_road": "12th Ave NE", "vpd_max": 29131.0, "volume_year": 2026, "volume_source_text": "NB 14,643vpd - 43mph / SB 14,488 - 46mph 2/13/26"}}, {"type": "Feature", "geometry": {"type": "Point", "coordinates": [-97.4236142635345, 35.2196265804808]}, "properties": {"loc_id": "52500-261", "on_road": "12th Ave NE", "vpd_max": 27604.0, "volume_year": 2026, "volume_source_text": "NB 13, 892vpd - 34mph / SB 13,712vpd 38mph 2/13/26"}}, {"type": "Feature", "geometry": {"type": "Point", "coordinates": [-97.4235662054, 35.2432064928]}, "properties": {"loc_id": "52500-264", "on_road": "12th Ave NE", "vpd_max": 20221.0, "volume_year": 2026, "volume_source_text": "NB 10,431vpd - 55mph / SB 9,790vpd - 56mph 2/13/26"}}, {"type": "Feature", "geometry": {"type": "Point", "coordinates": [-97.4235250491, 35.2360225553]}, "properties": {"loc_id": "52500-265", "on_road": "12th Ave NE", "vpd_max": 20361.0, "volume_year": 2026, "volume_source_text": "NB 10,577vpd - 44mph / SB 9,784vpd - 44mph 2/13/26"}}, {"type": "Feature", "geometry": {"type": "Point", "coordinates": [-97.4590837955475, 35.2792322503291]}, "properties": {"loc_id": "52500-266", "on_road": "12th Ave NW", "vpd_max": 2357.0, "volume_year": 2025, "volume_source_text": "NB 1,141vpd - 58mph / SB 1,216vpd - 59mph 12/12/25"}}, {"type": "Feature", "geometry": {"type": "Point", "coordinates": [-97.265202999115, 35.2352003037547]}, "properties": {"loc_id": "52500-267", "on_road": "120th Ave.NE", "vpd_max": 1508.0, "volume_year": 2025, "volume_source_text": "NB 727vpd - 60mph / SB 781vpd 64mph 12/5/25"}}, {"type": "Feature", "geometry": {"type": "Point", "coordinates": [-97.265202999115, 35.2826742492167]}, "properties": {"loc_id": "52500-268", "on_road": "120th Ave.NE", "vpd_max": 2052.0, "volume_year": 2025, "volume_source_text": "NB 1,001vpd - <75mph / SB 1,051vpd - 70mph 12/5/25"}}, {"type": "Feature", "geometry": {"type": "Point", "coordinates": [-97.4059394788, 35.2066083131]}, "properties": {"loc_id": "52500-270", "on_road": "24th Ave.SE", "vpd_max": 11795.0, "volume_year": 2025, "volume_source_text": "NB 5,632vpd - 52mph / SB 6,163vpd 46mph 12/19/25"}}, {"type": "Feature", "geometry": {"type": "Point", "coordinates": [-97.406051158905, 35.2523393362633]}, "properties": {"loc_id": "52500-271", "on_road": "24th Ave NE", "vpd_max": 4417.0, "volume_year": 2025, "volume_source_text": "NB 2,212vpd - 52mph / SB 2,205vpd - 59mph 12/19/25"}}, {"type": "Feature", "geometry": {"type": "Point", "coordinates": [-97.406047, 35.26748]}, "properties": {"loc_id": "52500-272", "on_road": "24th Ave.NE", "vpd_max": 2903.0, "volume_year": 2025, "volume_source_text": "NB 1,494vpd - 69mph / SB 1,409vpd - 60mph 12/19/25"}}, {"type": "Feature", "geometry": {"type": "Point", "coordinates": [-97.4058665335, 35.2793450241]}, "properties": {"loc_id": "52500-273", "on_road": "24th Ave NE", "vpd_max": 776.0, "volume_year": 2025, "volume_source_text": "NB 462vpd - 57mph / SB 314vpd - 67mph 12/19/25"}}, {"type": "Feature", "geometry": {"type": "Point", "coordinates": [-97.4058653069, 35.1930156568]}, "properties": {"loc_id": "52500-274", "on_road": "24th Ave Se", "vpd_max": 11505.0, "volume_year": 2025, "volume_source_text": "NB 5,538vpd - 52mph / SB 5,967vpd - 51mph 12/19/25"}}, {"type": "Feature", "geometry": {"type": "Point", "coordinates": [-97.406014635, 35.2214856647]}, "properties": {"loc_id": "52500-275", "on_road": "24th Ave NE", "vpd_max": 10567.0, "volume_year": 2025, "volume_source_text": "NB 5,094vpd - 54mph / SB 5,473vpd 53mph 12/19/25"}}, {"type": "Feature", "geometry": {"type": "Point", "coordinates": [-97.4059076038, 35.2362251881]}, "properties": {"loc_id": "52500-277", "on_road": "24th Ave NE", "vpd_max": 7392.0, "volume_year": 2025, "volume_source_text": "NB 3,723vpd -51mph / SB 3,669vpd - 51mph 12/19/25"}}, {"type": "Feature", "geometry": {"type": "Point", "coordinates": [-97.4765725726, 35.2074525553]}, "properties": {"loc_id": "52500-278", "on_road": "SW 24th Ave SW", "vpd_max": 15135.0, "volume_year": 2026, "volume_source_text": "NB 6,815vpd - 43mph / SB 8,320vpd - 41mph 4/24/26"}}, {"type": "Feature", "geometry": {"type": "Point", "coordinates": [-97.4767110023, 35.200926774]}, "properties": {"loc_id": "52500-279", "on_road": "SW 24th Ave SW", "vpd_max": 9537.0, "volume_year": 2026, "volume_source_text": "NB 4,319vpd - 45mph / SB 5,218vpd - 46mph 4/24/26"}}, {"type": "Feature", "geometry": {"type": "Point", "coordinates": [-97.4012260178, 35.2183201881]}, "properties": {"loc_id": "52500-28", "on_road": "E Alameda St", "vpd_max": 9538.0, "volume_year": 2018, "volume_source_text": "EB 5,246vpd - 53mph / WB 4,292vpd - 52mph (10-5-18)"}}, {"type": "Feature", "geometry": {"type": "Point", "coordinates": [-97.476655, 35.215649]}, "properties": {"loc_id": "52500-280", "on_road": "SW 24th Ave SW", "vpd_max": 18559.0, "volume_year": 2021, "volume_source_text": "NB 8,917vpd - 44mph / SB 9,642vpd - 42mph (2/26/21)"}}, {"type": "Feature", "geometry": {"type": "Point", "coordinates": [-97.4803422523, 35.2293984772]}, "properties": {"loc_id": "52500-282", "on_road": "24th Ave NW", "vpd_max": 18255.0, "volume_year": 2019, "volume_source_text": "NB 8,491vpd - 46mph / SB 9,764vpd - 44mph (1-18-19)"}}, {"type": "Feature", "geometry": {"type": "Point", "coordinates": [-97.4766254425049, 35.221230540355]}, "properties": {"loc_id": "52500-283", "on_road": "24th Ave NW", "vpd_max": 18011.0, "volume_year": 2022, "volume_source_text": "NB 7,957vpd - 40mph / SB 10,054vpd - 41mph (11/4/22)"}}, {"type": "Feature", "geometry": {"type": "Point", "coordinates": [-97.3882079397, 35.2068215631]}, "properties": {"loc_id": "52500-285", "on_road": "Se 36th Ave Se", "vpd_max": 1357.0, "volume_year": 2018, "volume_source_text": "NB 658vpd - 52mph / SB 699vpd 49mph (10-19-18)"}}, {"type": "Feature", "geometry": {"type": "Point", "coordinates": [-97.3882090022, 35.2250228287]}, "properties": {"loc_id": "52500-286", "on_road": "NE 36th Ave NE", "vpd_max": 1577.0, "volume_year": 2026, "volume_source_text": "NB 787vpd - 60mph / SB 790vpd - 61mph 2/20/26"}}, {"type": "Feature", "geometry": {"type": "Point", "coordinates": [-97.3881876468658, 35.2353405150337]}, "properties": {"loc_id": "52500-288", "on_road": "NE 36th Ave NE", "vpd_max": 1114.0, "volume_year": 2020, "volume_source_text": "NB 544vpd - 55mph / SB 570 vpd - 53mph (11/13/20)"}}, {"type": "Feature", "geometry": {"type": "Point", "coordinates": [-97.4943280220032, 35.2651824732249]}, "properties": {"loc_id": "52500-289", "on_road": "36th Ave NW", "vpd_max": 9229.0, "volume_year": 2026, "volume_source_text": "NB 4,684vpd - 51mph / SB 4,545vpd - 44mph 4/3/26"}}, {"type": "Feature", "geometry": {"type": "Point", "coordinates": [-97.3834852913, 35.217909524]}, "properties": {"loc_id": "52500-29", "on_road": "E Alameda St", "vpd_max": 4706.0, "volume_year": 2018, "volume_source_text": "EB 2,467vpd - 60mph / WB 2,239vpd - 54mph (10-5-18)"}}, {"type": "Feature", "geometry": {"type": "Point", "coordinates": [-97.4943602085114, 35.2865977743323]}, "properties": {"loc_id": "52500-290", "on_road": "36th Ave NW", "vpd_max": 6884.0, "volume_year": 2026, "volume_source_text": "NB 3,643vpd -55mph / SB 3,241vpd / 49 mph 4/3/26"}}, {"type": "Feature", "geometry": {"type": "Point", "coordinates": [-97.4412453382, 35.208639899]}, "properties": {"loc_id": "52500-292", "on_road": "Jenkins Ave", "vpd_max": 8496.0, "volume_year": 2026, "volume_source_text": "NB 4,509vpd - 29mph / SB 3,987vpd - 29mph 4/10/26"}}, {"type": "Feature", "geometry": {"type": "Point", "coordinates": [-97.5180888695, 35.2907221569]}, "properties": {"loc_id": "52500-293", "on_road": "W Indian Hills Rd", "vpd_max": 3014.0, "volume_year": 2024, "volume_source_text": "EB 1,564vpd - 65mph / WB 1,450vpd - 53mph 12/13/24"}}, {"type": "Feature", "geometry": {"type": "Point", "coordinates": [-97.521515, 35.247319]}, "properties": {"loc_id": "52500-295", "on_road": "W ROCK CREEK RD", "vpd_max": 858.0, "volume_year": 2018, "volume_source_text": "EB 438vpd - 60mph / WB 420vpd - 52mph (9-28-18)"}}, {"type": "Feature", "geometry": {"type": "Point", "coordinates": [-97.4944400023, 35.2537452975]}, "properties": {"loc_id": "52500-3", "on_road": "NW 36th Ave NW", "vpd_max": 16918.0, "volume_year": 2024, "volume_source_text": "NB 8,502vpd - 53mph / SB  8,416vpd - 51mph 12/20/24"}}, {"type": "Feature", "geometry": {"type": "Point", "coordinates": [-97.3613977432251, 35.218189125027]}, "properties": {"loc_id": "52500-30", "on_road": "E Alameda St", "vpd_max": 3737.0, "volume_year": 2025, "volume_source_text": "EB 1,895vpd - 59mph / WB 1,842vpd - 65mph 12/5/25"}}, {"type": "Feature", "geometry": {"type": "Point", "coordinates": [-97.3883004553, 35.2840188366]}, "properties": {"loc_id": "52500-312", "on_road": "36th Ave.NE", "vpd_max": 256.0, "volume_year": 2026, "volume_source_text": "NB 136vpd - 59mph / SB 120vpd - 57mph 2/20/26"}}, {"type": "Feature", "geometry": {"type": "Point", "coordinates": [-97.38837, 35.160731]}, "properties": {"loc_id": "52500-315", "on_road": "36th Ave.SE", "vpd_max": 504.0, "volume_year": 2018, "volume_source_text": "SB 504vpd - 50mph (10-19-18)"}}, {"type": "Feature", "geometry": {"type": "Point", "coordinates": [-97.388628, 35.160538]}, "properties": {"loc_id": "52500-316", "on_road": "E POST OAK RD", "vpd_max": 904.0, "volume_year": 2018, "volume_source_text": "EB 904vpd - 54mph (10-19-18)"}}, {"type": "Feature", "geometry": {"type": "Point", "coordinates": [-97.388102, 35.160538]}, "properties": {"loc_id": "52500-318", "on_road": "E POST OAK RD", "vpd_max": 684.0, "volume_year": 2018, "volume_source_text": "WB 684vpd - 55mph (10-19-18)"}}, {"type": "Feature", "geometry": {"type": "Point", "coordinates": [-97.3392534255981, 35.2182680104378]}, "properties": {"loc_id": "52500-32", "on_road": "E Alameda St", "vpd_max": 3123.0, "volume_year": 2025, "volume_source_text": "EB 1,538vpd - 66mph / WB 1,585vpd - 62mph 12/5/25"}}, {"type": "Feature", "geometry": {"type": "Point", "coordinates": [-97.4342610101, 35.2181992662]}, "properties": {"loc_id": "52500-33", "on_road": "E Alameda St", "vpd_max": 13675.0, "volume_year": 2026, "volume_source_text": "EB 6,938vpd - 40mph / WB 6,737vpd - 42mph 2/27/26"}}, {"type": "Feature", "geometry": {"type": "Point", "coordinates": [-97.426276596, 35.2182380553]}, "properties": {"loc_id": "52500-35", "on_road": "E Alameda St", "vpd_max": 15424.0, "volume_year": 2026, "volume_source_text": "EB 7,824vpd - 47mph / WB 7,600vpd - 49mph 2/27/26"}}, {"type": "Feature", "geometry": {"type": "Point", "coordinates": [-97.3222482204437, 35.2220018321772]}, "properties": {"loc_id": "52500-36", "on_road": "E Alameda Dr", "vpd_max": 2550.0, "volume_year": 2025, "volume_source_text": "EB 1,319vpd - 64mph / WB 1,231vpd - 62mph 12/5/25"}}, {"type": "Feature", "geometry": {"type": "Point", "coordinates": [-97.3182249069214, 35.2828494106424]}, "properties": {"loc_id": "52500-37", "on_road": "NE 84th Ave NE", "vpd_max": 1014.0, "volume_year": 2020, "volume_source_text": "NB 455vpd - 64mph / SB 559vpd - 64 mph (10/16/20)"}}, {"type": "Feature", "geometry": {"type": "Point", "coordinates": [-97.4589550495148, 35.2089853008913]}, "properties": {"loc_id": "52500-38", "on_road": "S Berry Rd S", "vpd_max": 8862.0, "volume_year": 2024, "volume_source_text": "NB 4,401vpd - 38mph / SB 4,461vpd - 36mph 10/4/24"}}, {"type": "Feature", "geometry": {"type": "Point", "coordinates": [-97.458885346, 35.2055797897]}, "properties": {"loc_id": "52500-39", "on_road": "S Berry Rd S", "vpd_max": 8467.0, "volume_year": 2024, "volume_source_text": "NB 4,332vpd - 39mph  / SB 4,135vpd - 39mph 10/4/24"}}, {"type": "Feature", "geometry": {"type": "Point", "coordinates": [-97.3881983757019, 35.1838316269627]}, "properties": {"loc_id": "52500-4", "on_road": "36th Ave Se", "vpd_max": 1828.0, "volume_year": 2026, "volume_source_text": "NB 956vpd - 56mph / SB 872vpd - 51mph 2/27/26"}}, {"type": "Feature", "geometry": {"type": "Point", "coordinates": [-97.459123, 35.193431]}, "properties": {"loc_id": "52500-42", "on_road": "S Berry Rd S", "vpd_max": 4929.0, "volume_year": 2024, "volume_source_text": "NB 2,164vpd - 34mph / SB 2,765vpd - 40mph 10/4/24"}}, {"type": "Feature", "geometry": {"type": "Point", "coordinates": [-97.4590194225311, 35.22890807315]}, "properties": {"loc_id": "52500-45", "on_road": "N Berry Rd", "vpd_max": 9263.0, "volume_year": 2023, "volume_source_text": "NB 4,429vpd - 36mph / SB 4,834vpd - 38mph (4/21/23)"}}, {"type": "Feature", "geometry": {"type": "Point", "coordinates": [-97.4588333226, 35.2210041022]}, "properties": {"loc_id": "52500-46", "on_road": "N Berry Rd", "vpd_max": 9500.0, "volume_year": 2024, "volume_source_text": "NB 4,233vpd - 37mph / SB 5,267vpd - 35mph 10/4/24"}}, {"type": "Feature", "geometry": {"type": "Point", "coordinates": [-97.4721247601, 35.2111720787]}, "properties": {"loc_id": "52500-47", "on_road": "W Boyd St", "vpd_max": 6600.0, "volume_year": 2018, "volume_source_text": "EB 3,114vpd - 35mph / WB 3,486vpd - 37mph (11-30-18)"}}, {"type": "Feature", "geometry": {"type": "Point", "coordinates": [-97.4423473538, 35.2110883209]}, "properties": {"loc_id": "52500-49", "on_road": "W Boyd St", "vpd_max": 17952.0, "volume_year": 2018, "volume_source_text": "EB 7,846vpd 35mph / WB 10,106vpd - 32mph (11-30-18)"}}, {"type": "Feature", "geometry": {"type": "Point", "coordinates": [-97.4927294254303, 35.207381099051]}, "properties": {"loc_id": "52500-5", "on_road": "36th Ave SW", "vpd_max": 9891.0, "volume_year": 2026, "volume_source_text": "EB 4,989vpd - 50mph / WB 4,902vpd - 55mph 4/3/26"}}, {"type": "Feature", "geometry": {"type": "Point", "coordinates": [-97.4576675891876, 35.2111241873761]}, "properties": {"loc_id": "52500-50", "on_road": "W Boyd St", "vpd_max": 9894.0, "volume_year": 2018, "volume_source_text": "EB 4,969vpd - 35mph / WB 4,925vpd - 37mph (12-7-18)"}}, {"type": "Feature", "geometry": {"type": "Point", "coordinates": [-97.4884700775146, 35.261827334392]}, "properties": {"loc_id": "52500-5000", "on_road": "TECUMSEH RD", "vpd_max": 20979.0, "volume_year": 2026, "volume_source_text": "EB 8,646vpd - 39mph / WB 12,333vpd - 47mph 3/6/26"}}, {"type": "Feature", "geometry": {"type": "Point", "coordinates": [-97.4795651435852, 35.2557299118818]}, "properties": {"loc_id": "52500-5001", "on_road": "24TH AVE NW", "vpd_max": 9441.0, "volume_year": 2021, "volume_source_text": "NB 4,905vpd - 54mph / SB 4,536vpd - 52mph (1/29/21)"}}, {"type": "Feature", "geometry": {"type": "Point", "coordinates": [-97.4790555238724, 35.2454350901753]}, "properties": {"loc_id": "52500-5002", "on_road": "24TH AVE NW", "vpd_max": 12635.0, "volume_year": 2021, "volume_source_text": "NB 5,969vpd - 48mph / SB 6,666vpd - 48mph (2/26/21)"}}, {"type": "Feature", "geometry": {"type": "Point", "coordinates": [-97.4809384346008, 35.2360503309145]}, "properties": {"loc_id": "52500-5003", "on_road": "24TH AVE NW", "vpd_max": 18743.0, "volume_year": 2021, "volume_source_text": "NB 7,691vpd - 43mph / SB 11,052vpd 41mph (3/5/21)"}}, {"type": "Feature", "geometry": {"type": "Point", "coordinates": [-97.4883359670639, 35.2478835143928]}, "properties": {"loc_id": "52500-5004", "on_road": "W ROCK CREEK RD", "vpd_max": 8627.0, "volume_year": 2025, "volume_source_text": "EB 4,152vpd - 51mph / WB 4,475vpd - 49mph 12/12/25"}}, {"type": "Feature", "geometry": {"type": "Point", "coordinates": [-97.4818396568298, 35.2477394914855]}, "properties": {"loc_id": "52500-5005", "on_road": "W ROCK CREEK RD", "vpd_max": 7883.0, "volume_year": 2025, "volume_source_text": "EB 4,166vpd - 47mph / WB 3,717vpd - 45mph 12/12/25"}}, {"type": "Feature", "geometry": {"type": "Point", "coordinates": [-97.4473249912262, 35.2111154215628]}, "properties": {"loc_id": "52500-52", "on_road": "W Boyd St", "vpd_max": 16483.0, "volume_year": 2026, "volume_source_text": "EB 7,960vpd - 34mph / WB 8,523vpd - 35mph 4/17/26"}}, {"type": "Feature", "geometry": {"type": "Point", "coordinates": [-97.4310064315796, 35.2111241873761]}, "properties": {"loc_id": "52500-53", "on_road": "Boyd St", "vpd_max": 5060.0, "volume_year": 2018, "volume_source_text": "EB 2,394vpd - 34 mph / WB 2,666vpd - 35mph (11-30-18)"}}, {"type": "Feature", "geometry": {"type": "Point", "coordinates": [-97.4512732028961, 35.2111066557487]}, "properties": {"loc_id": "52500-54", "on_road": "W Boyd St", "vpd_max": 13638.0, "volume_year": 2023, "volume_source_text": "EB 6,393vpd - 36mph / WB 7,245vpd - 38mph (4/21/23)"}}, {"type": "Feature", "geometry": {"type": "Point", "coordinates": [-97.4374993616, 35.2110302115]}, "properties": {"loc_id": "52500-55", "on_road": "Boyd", "vpd_max": 13962.0, "volume_year": 2026, "volume_source_text": "EB 6,383vpd - 37mph / WB 7,579vpd - 36mph 4/17/26"}}, {"type": "Feature", "geometry": {"type": "Point", "coordinates": [-97.4482905864716, 35.2834186826588]}, "properties": {"loc_id": "52500-56", "on_road": "Broadway Ave", "vpd_max": 3768.0, "volume_year": 2025, "volume_source_text": "NB 1,788vpd - 63mph / SB 1,980vpd - 57mph 12/12/25"}}, {"type": "Feature", "geometry": {"type": "Point", "coordinates": [-97.4512410163879, 35.2075125921975]}, "properties": {"loc_id": "52500-57", "on_road": "W Brooks St", "vpd_max": 1633.0, "volume_year": 2026, "volume_source_text": "EB 800vpd - 30mph / WB 833vpd - 29mph 4/10/26"}}, {"type": "Feature", "geometry": {"type": "Point", "coordinates": [-97.4501252174377, 35.2053736105731]}, "properties": {"loc_id": "52500-58", "on_road": "Chautauqua Ave", "vpd_max": 4884.0, "volume_year": 2026, "volume_source_text": "NB 2,356vpd - 32mph / SB 2,528vpd - 32mph 4/10/26"}}, {"type": "Feature", "geometry": {"type": "Point", "coordinates": [-97.4501144886017, 35.1870233923777]}, "properties": {"loc_id": "52500-59", "on_road": "Chautauqua Ave", "vpd_max": 5948.0, "volume_year": 2018, "volume_source_text": "NB 2,935vpd - 49mph / SB 3,013vpd - 42mph (12-14-18)"}}, {"type": "Feature", "geometry": {"type": "Point", "coordinates": [-97.4942851066589, 35.2163484436788]}, "properties": {"loc_id": "52500-6", "on_road": "SW 36th Ave SW", "vpd_max": 10651.0, "volume_year": 2026, "volume_source_text": "NB 5,320vpd - 41mph / SB 5,331vpd - 43mph 4/3/26"}}, {"type": "Feature", "geometry": {"type": "Point", "coordinates": [-97.4500157132, 35.1931727193]}, "properties": {"loc_id": "52500-62", "on_road": "Chautauqua Ave", "vpd_max": 7128.0, "volume_year": 2026, "volume_source_text": "NB 3,378vpd - 40mph / SB 3,750vpd - 48mph 4/10/26"}}, {"type": "Feature", "geometry": {"type": "Point", "coordinates": [-97.4239790439606, 35.1933802439395]}, "properties": {"loc_id": "52500-63", "on_road": "Classen Blvd", "vpd_max": 29872.0, "volume_year": 2026, "volume_source_text": "NB 14,684vpd - 41mph / SB 15,188vpd 37mph 1/23/26"}}, {"type": "Feature", "geometry": {"type": "Point", "coordinates": [-97.4363923072815, 35.2170145998435]}, "properties": {"loc_id": "52500-64", "on_road": "Classen Blvd", "vpd_max": 12468.0, "volume_year": 2025, "volume_source_text": "NB 5,513vpd - 40mph / SB 6,955vpd - 41mph 3/14/25"}}, {"type": "Feature", "geometry": {"type": "Point", "coordinates": [-97.4350297451019, 35.2089853008913]}, "properties": {"loc_id": "52500-66", "on_road": "Classen Blvd", "vpd_max": 14660.0, "volume_year": 2025, "volume_source_text": "NB 7,000vpd - 39mph / SB 7,660vpd - 42mph 11/21/25"}}, {"type": "Feature", "geometry": {"type": "Point", "coordinates": [-97.433253, 35.206141]}, "properties": {"loc_id": "52500-67", "on_road": "Classen Blvd", "vpd_max": 17148.0, "volume_year": 2025, "volume_source_text": "NB 7,994vpd - 43mph / SB 9,154vpd - 41mph 11/21/25"}}, {"type": "Feature", "geometry": {"type": "Point", "coordinates": [-97.4227926038, 35.190913399]}, "properties": {"loc_id": "52500-68", "on_road": "Classen Blvd", "vpd_max": 27826.0, "volume_year": 2026, "volume_source_text": "NB 14,272vpd - 44mph / SB 13,554vpd - 46mph 1/23/26"}}, {"type": "Feature", "geometry": {"type": "Point", "coordinates": [-97.4200316194, 35.1866460162]}, "properties": {"loc_id": "52500-69", "on_road": "Classen Blvd", "vpd_max": 24804.0, "volume_year": 2026, "volume_source_text": "NB 12,425vpd - 49mph / SB 12,379vpd - 47mph 1/23/26"}}, {"type": "Feature", "geometry": {"type": "Point", "coordinates": [-97.3706725334, 35.2142546022]}, "properties": {"loc_id": "52500-7", "on_road": "Se 48th Ave Se", "vpd_max": 2646.0, "volume_year": 2026, "volume_source_text": "NB 1,317vpd - 44mph / SB 1,329vpd - 46mph 2/27/26"}}, {"type": "Feature", "geometry": {"type": "Point", "coordinates": [-97.4287962913513, 35.2004642593753]}, "properties": {"loc_id": "52500-70", "on_road": "Classen Blvd", "vpd_max": 13949.0, "volume_year": 2025, "volume_source_text": "NB 6,494vpd - 49mph / SB 7,455vpd - 49mph 11/21/25"}}, {"type": "Feature", "geometry": {"type": "Point", "coordinates": [-97.4256551194, 35.1955321334]}, "properties": {"loc_id": "52500-71", "on_road": "Classen Blvd", "vpd_max": 13770.0, "volume_year": 2026, "volume_source_text": "NB 6,319vpd - 50mph / SB 7,451vpd - 50mph 1/23/26"}}, {"type": "Feature", "geometry": {"type": "Point", "coordinates": [-97.434578846, 35.1912371021]}, "properties": {"loc_id": "52500-72", "on_road": "E Constitution St", "vpd_max": 8077.0, "volume_year": 2018, "volume_source_text": "EB 3,946vpd - 44mph / WB 4,131vpd 44mph (12-14-18)"}}, {"type": "Feature", "geometry": {"type": "Point", "coordinates": [-97.4469291116, 35.2229670475]}, "properties": {"loc_id": "52500-74", "on_road": "Daws", "vpd_max": 1059.0, "volume_year": 2019, "volume_source_text": "EB 601vpd - 30mph / WB 458vpd - 29mph (2-8-19)"}}, {"type": "Feature", "geometry": {"type": "Point", "coordinates": [-97.4838674068451, 35.2111241873761]}, "properties": {"loc_id": "52500-76", "on_road": "Ed Noble Pkwy", "vpd_max": 5830.0, "volume_year": 2022, "volume_source_text": "NB 3,144vpd - 45mph / SB 2,686vpd - 46mph (12/16/22)"}}, {"type": "Feature", "geometry": {"type": "Point", "coordinates": [-97.4401044845581, 35.2199158214893]}, "properties": {"loc_id": "52500-77", "on_road": "E Eufaula St", "vpd_max": 2855.0, "volume_year": 2020, "volume_source_text": "EB 1,083vpd - 29mph / WB 1,772vpd - 29mph (12/11/20)"}}, {"type": "Feature", "geometry": {"type": "Point", "coordinates": [-97.4461099505424, 35.2173553453735]}, "properties": {"loc_id": "52500-78", "on_road": "W Eufaula St", "vpd_max": 3922.0, "volume_year": 2026, "volume_source_text": "EB 1,167vpd - 29mph / WB 2,755vpd - 28mph 4/10/26"}}, {"type": "Feature", "geometry": {"type": "Point", "coordinates": [-97.453043460846, 35.2089940669345]}, "properties": {"loc_id": "52500-79", "on_road": "S Flood Ave", "vpd_max": 3505.0, "volume_year": 2018, "volume_source_text": "NB 1,395vpd - 34mph / SB 2,110vpd - 29mph (10-26-18)"}}, {"type": "Feature", "geometry": {"type": "Point", "coordinates": [-97.3707136037, 35.1970066646]}, "properties": {"loc_id": "52500-8", "on_road": "Se 48th Ave Se", "vpd_max": 1748.0, "volume_year": 2020, "volume_source_text": "NB 895vpd - 68mph / SB 853vpd - 59mph (11/13/20)"}}, {"type": "Feature", "geometry": {"type": "Point", "coordinates": [-97.452873096, 35.2186714459]}, "properties": {"loc_id": "52500-81", "on_road": "N Flood Ave", "vpd_max": 9629.0, "volume_year": 2018, "volume_source_text": "NB 3,718vpd - 28mph / SB 5,911vpd - 29mph (11-2-18)"}}, {"type": "Feature", "geometry": {"type": "Point", "coordinates": [-97.4529549163, 35.2163742037]}, "properties": {"loc_id": "52500-82", "on_road": "S Flood Ave", "vpd_max": 8577.0, "volume_year": 2018, "volume_source_text": "NB 4, 436vpd - 34mph / SB 4,141vpd - 35mph (10-26-18)"}}, {"type": "Feature", "geometry": {"type": "Point", "coordinates": [-97.4531078338623, 35.2286539198773]}, "properties": {"loc_id": "52500-84", "on_road": "N Flood Ave", "vpd_max": 15037.0, "volume_year": 2018, "volume_source_text": "NB 7,570vpd - 34mph / SB 7,467vpd - 36mph (10-26-18)"}}, {"type": "Feature", "geometry": {"type": "Point", "coordinates": [-97.4472585882, 35.2763807507]}, "properties": {"loc_id": "52500-87", "on_road": "W Franklin Rd", "vpd_max": 4472.0, "volume_year": 2024, "volume_source_text": "EB 2,274vpd - 60mph / WB 2,198vpd - 61mph 10/25/24"}}, {"type": "Feature", "geometry": {"type": "Point", "coordinates": [-97.3619253694, 35.2760597038]}, "properties": {"loc_id": "52500-88", "on_road": "E Franklin Rd E", "vpd_max": 2171.0, "volume_year": 2025, "volume_source_text": "EB 1,056vpd - 63mph / WB 1,115vpd - 55mph 12/5/25"}}, {"type": "Feature", "geometry": {"type": "Point", "coordinates": [-97.5034935882, 35.2762767038]}, "properties": {"loc_id": "52500-89", "on_road": "W Franklin Rd", "vpd_max": 1382.0, "volume_year": 2025, "volume_source_text": "EB 668vpd - 59mph / WB 714vpd - 63mph 1/31/25"}}, {"type": "Feature", "geometry": {"type": "Point", "coordinates": [-97.3703992366791, 35.225384911985]}, "properties": {"loc_id": "52500-9", "on_road": "NE 48th Ave NE", "vpd_max": 1364.0, "volume_year": 2020, "volume_source_text": "NB 699vpd - 60mph / SB 665vpd - 57mph (11/13/20)"}}, {"type": "Feature", "geometry": {"type": "Point", "coordinates": [-97.343978, 35.276249]}, "properties": {"loc_id": "52500-90", "on_road": "E Franklin Rd E", "vpd_max": 2450.0, "volume_year": 2024, "volume_source_text": "EB 1,197vpd - 68mph / WB 1,253vpd - 75mph 9/20/24"}}, {"type": "Feature", "geometry": {"type": "Point", "coordinates": [-97.4352121353149, 35.2763156329542]}, "properties": {"loc_id": "52500-91", "on_road": "E Franklin Rd E", "vpd_max": 5466.0, "volume_year": 2024, "volume_source_text": "EB 2,583vpd - 64mph / WB 2,883 vpd - 59mph 9/20/24"}}, {"type": "Feature", "geometry": {"type": "Point", "coordinates": [-97.4332306330108, 35.2618538219848]}, "properties": {"loc_id": "52500-92", "on_road": "TECUMSEH RD", "vpd_max": 10599.0, "volume_year": 2024, "volume_source_text": "EB 5,259vpd - 57mph / WB 5,340vpd - 57mph 10/25/24"}}, {"type": "Feature", "geometry": {"type": "Point", "coordinates": [-97.4420634476, 35.2177243209]}, "properties": {"loc_id": "52500-95", "on_road": "James Garner Ave.", "vpd_max": 3795.0, "volume_year": 2024, "volume_source_text": "NB 1,872vpd - 36mph / SB 1,923vpd -34mph 11/1/24"}}, {"type": "Feature", "geometry": {"type": "Point", "coordinates": [-97.443117, 35.21953]}, "properties": {"loc_id": "52500-96", "on_road": "James Garner Ave.", "vpd_max": 3508.0, "volume_year": 2024, "volume_source_text": "NB 1,494vpd - 32mph / SB 2,014vpd - 29mph 11/1/24"}}, {"type": "Feature", "geometry": {"type": "Point", "coordinates": [-97.4405510723591, 35.2233170650318]}, "properties": {"loc_id": "52500-99", "on_road": "E Gray St", "vpd_max": 5815.0, "volume_year": 2023, "volume_source_text": "ONE WAY WB only 5,815vpd - 34mph (4/7/23)"}}]}